[{"OBJECT_NAME":"STARLINK-4010","OBJECT_ID":"2022-062AJ","EPOCH":"2026-03-09T06:37:53.312736","MEAN_MOTION":15.0884216,"ECCENTRICITY":0.00016817,"INCLINATION":53.2183,"RA_OF_ASC_NODE":25.9758,"ARG_OF_PERICENTER":86.1195,"MEAN_ANOMALY":273.999,"EPHEMERIS_TYPE":0,"CLASSIFICATION_TYPE":"U","NORAD_CAT_ID":52862,"ELEMENT_SET_NO":999,"REV_AT_EPOCH":20586,"BSTAR":3.340954e-6,"MEAN_MOTION_DOT":-2.35e-6,"MEAN_MOTION_DDOT":0},{"OBJECT_NAME":"OBJECT A","OBJECT_ID":"2024-110A","EPOCH":"2026-03-09T23:09:02.134656","MEAN_MOTION":15.1192128,"ECCENTRICITY":0.0007919,"INCLINATION":97.5675,"RA_OF_ASC_NODE":161.4531,"ARG_OF_PERICENTER":228.7681,"MEAN_ANOMALY":131.2868,"EPHEMERIS_TYPE":0,"CLASSIFICATION_TYPE":"U","NORAD_CAT_ID":60012,"ELEMENT_SET_NO":999,"REV_AT_EPOCH":9691,"BSTAR":0.00051932581,"MEAN_MOTION_DOT":8.842e-5,"MEAN_MOTION_DDOT":0}]
